{
    "links": {
        "self": "http://www.neowsapp.com/rest/v1/neo/3545555?api_key=iIulBulltgU6a56xZRHN4H3l9WmuAYTsLGpBGhQ2"
    },
    "id": "3545555",
    "neo_reference_id": "3545555",
    "name": "(2010 RU30)",
    "designation": "2010 RU30",
    "nasa_jpl_url": "http://ssd.jpl.nasa.gov/sbdb.cgi?sstr=3545555",
    "absolute_magnitude_h": 23.5,
    "estimated_diameter": {
        "kilometers": {
            "estimated_diameter_min": 0.0530340723,
            "estimated_diameter_max": 0.1185877909
        },
        "meters": {
            "estimated_diameter_min": 53.0340723319,
            "estimated_diameter_max": 118.5877908577
        },
        "miles": {
            "estimated_diameter_min": 0.0329538346,
            "estimated_diameter_max": 0.0736870142
        },
        "feet": {
            "estimated_diameter_min": 173.9963058693,
            "estimated_diameter_max": 389.0675677576
        }
    },
    "is_potentially_hazardous_asteroid": false,
    "close_approach_data": [
        {
            "close_approach_date": "2010-09-17",
            "close_approach_date_full": "2010-Sep-17 19:18",
            "epoch_date_close_approach": 1284751080000,
            "relative_velocity": {
                "kilometers_per_second": "9.0856213075",
                "kilometers_per_hour": "32708.2367069185",
                "miles_per_hour": "20323.6263026961"
            },
            "miss_distance": {
                "astronomical": "0.1044181759",
                "lunar": "40.6186704251",
                "kilometers": "15620736.703925333",
                "miles": "9706275.7018342754"
            },
            "orbiting_body": "Earth"
        }
    ],
    "orbital_data": {
        "orbit_id": "11",
        "orbit_determination_date": "2017-04-06 08:56:50",
        "first_observation_date": "2010-09-04",
        "last_observation_date": "2010-10-05",
        "data_arc_in_days": 31,
        "observations_used": 42,
        "orbit_uncertainty": "8",
        "minimum_orbit_intersection": ".103924",
        "jupiter_tisserand_invariant": "3.820",
        "epoch_osculation": "2455446.5",
        "eccentricity": ".4322386685732649",
        "semi_major_axis": "1.882316481131115",
        "inclination": "13.21631239034766",
        "ascending_node_longitude": "164.0206220406149",
        "orbital_period": "943.2729796717502",
        "perihelion_distance": "1.068706511493489",
        "perihelion_argument": "215.4268038422765",
        "aphelion_distance": "2.695926450768742",
        "perihelion_time": "2455480.101282199394",
        "mean_anomaly": "347.1760753753476",
        "mean_motion": ".3816498593283955",
        "equinox": "J2000",
        "orbit_class": {
            "orbit_class_type": "AMO",
            "orbit_class_description": "Near-Earth asteroid orbits similar to that of 1221 Amor",
            "orbit_class_range": "1.017 AU < q (perihelion) < 1.3 AU"
        }
    },
    "is_sentry_object": false
}